{"type": "FeatureCollection", "features": [ {"type": "Feature", "properties": {"norad_id": 34833, "name": "IRIDIUM 33 DEB", "group": "iridium-33-debris", "lat": 1.1593344808531778, "lon": -124.7011148195732, "alt_km": 711.1367405050787, "timestamp": "2025-12-02T13:52:17.646327+00:00", "meta": {"OBJECT_NAME": "IRIDIUM 33 DEB", "OBJECT_ID": "1997-051MH", "EPOCH": "2025-12-02T05:03:01.052640", "MEAN_MOTION": 14.52266696, "ECCENTRICITY": 0.00214845, "INCLINATION": 86.3939, "RA_OF_ASC_NODE": 55.5303, "ARG_OF_PERICENTER": 130.9995, "MEAN_ANOMALY": 287.1391, "EPHEMERIS_TYPE": 0, "CLASSIFICATION_TYPE": "U", "NORAD_CAT_ID": 34833, "ELEMENT_SET_NO": 999, "REV_AT_EPOCH": 87562, "BSTAR": 0.0010041369, "MEAN_MOTION_DOT": 4.11e-05, "MEAN_MOTION_DDOT": 0}, "tle": {"line1": "1 34833U 97051MH  25336.21042885  .00004110  00000+0  10041-2 0  9995", "line2": "2 34833  86.3939  55.5303 0021484 130.9995 287.1391 14.52266696875623"}}, "geometry": {"type": "Point", "coordinates": [-124.7011148195732, 1.1593344808531778]}}, {"type": "Feature", "properties": {"norad_id": 34870, "name": "IRIDIUM 33 DEB", "group": "iridium-33-debris", "lat": -3.839022985572419, "lon": -41.509720590693625, "alt_km": 652.4550511554253, "timestamp": "2025-12-02T13:52:17.646337+00:00", "meta": {"OBJECT_NAME": "IRIDIUM 33 DEB", "OBJECT_ID": "1997-051MQ", "EPOCH": "2025-12-01T05:36:37.151712", "MEAN_MOTION": 14.76055324, "ECCENTRICITY": 0.0014764, "INCLINATION": 86.3102, "RA_OF_ASC_NODE": 319.3536, "ARG_OF_PERICENTER": 227.1347, "MEAN_ANOMALY": 190.7112, "EPHEMERIS_TYPE": 0, "CLASSIFICATION_TYPE": "U", "NORAD_CAT_ID": 34870, "ELEMENT_SET_NO": 999, "REV_AT_EPOCH": 88741, "BSTAR": 0.0019021, "MEAN_MOTION_DOT": 0.00013168, "MEAN_MOTION_DDOT": 0}, "tle": {"line1": "1 34870U 97051MQ  25335.23376333  .00013168  00000+0  19021-2 0  9995", "line2": "2 34870  86.3102 319.3536 0014764 227.1347 190.7112 14.76055324887418"}}, "geometry": {"type": "Point", "coordinates": [-41.509720590693625, -3.839022985572419]}}, {"type": "Feature", "properties": {"norad_id": 34896, "name": "IRIDIUM 33 DEB", "group": "iridium-33-debris", "lat": -25.01307598702264, "lon": 152.96017747460627, "alt_km": 667.8723390271753, "timestamp": "2025-12-02T13:52:17.646347+00:00", "meta": {"OBJECT_NAME": "IRIDIUM 33 DEB", "OBJECT_ID": "1997-051MY", "EPOCH": "2025-12-02T06:27:15.824160", "MEAN_MOTION": 14.66099888, "ECCENTRICITY": 0.0023761, "INCLINATION": 86.3285, "RA_OF_ASC_NODE": 331.3819, "ARG_OF_PERICENTER": 253.426, "MEAN_ANOMALY": 121.6385, "EPHEMERIS_TYPE": 0, "CLASSIFICATION_TYPE": "U", "NORAD_CAT_ID": 34896, "ELEMENT_SET_NO": 999, "REV_AT_EPOCH": 87466, "BSTAR": 0.0012181707, "MEAN_MOTION_DOT": 6.738e-05, "MEAN_MOTION_DDOT": 0}, "tle": {"line1": "1 34896U 97051MY  25336.26893315  .00006738  00000+0  12182-2 0  9997", "line2": "2 34896  86.3285 331.3819 0023761 253.4260 121.6385 14.66099888874669"}}, "geometry": {"type": "Point", "coordinates": [152.96017747460627, -25.01307598702264]}}, {"type": "Feature", "properties": {"norad_id": 34926, "name": "IRIDIUM 33 DEB", "group": "iridium-33-debris", "lat": 15.728473921554352, "lon": 14.074053086140673, "alt_km": 678.0492342323087, "timestamp": "2025-12-02T13:52:17.646357+00:00", "meta": {"OBJECT_NAME": "IRIDIUM 33 DEB", "OBJECT_ID": "1997-051NF", "EPOCH": "2025-12-02T02:22:03.194112", "MEAN_MOTION": 14.5364627, "ECCENTRICITY": 0.00770014, "INCLINATION": 86.1337, "RA_OF_ASC_NODE": 13.2046, "ARG_OF_PERICENTER": 329.0462, "MEAN_ANOMALY": 59.3492, "EPHEMERIS_TYPE": 0, "CLASSIFICATION_TYPE": "U", "NORAD_CAT_ID": 34926, "ELEMENT_SET_NO": 999, "REV_AT_EPOCH": 86302, "BSTAR": 0.0054377564, "MEAN_MOTION_DOT": 0.00023732, "MEAN_MOTION_DDOT": 0}, "tle": {"line1": "1 34926U 97051NF  25336.09864808  .00023732  00000+0  54378-2 0  9993", "line2": "2 34926  86.1337  13.2046 0077001 329.0462  59.3492 14.53646270863020"}}, "geometry": {"type": "Point", "coordinates": [14.074053086140673, 15.728473921554352]}}, {"type": "Feature", "properties": {"norad_id": 34985, "name": "IRIDIUM 33 DEB", "group": "iridium-33-debris", "lat": -41.318421237066595, "lon": -115.58742581487529, "alt_km": 747.0307711816013, "timestamp": "2025-12-02T13:52:17.646367+00:00", "meta": {"OBJECT_NAME": "IRIDIUM 33 DEB", "OBJECT_ID": "1997-051NR", "EPOCH": "2025-12-02T06:26:29.024736", "MEAN_MOTION": 14.41932039, "ECCENTRICITY": 0.00198546, "INCLINATION": 86.3697, "RA_OF_ASC_NODE": 61.3452, "ARG_OF_PERICENTER": 256.3727, "MEAN_ANOMALY": 159.0291, "EPHEMERIS_TYPE": 0, "CLASSIFICATION_TYPE": "U", "NORAD_CAT_ID": 34985, "ELEMENT_SET_NO": 999, "REV_AT_EPOCH": 87024, "BSTAR": 0.0009547559, "MEAN_MOTION_DOT": 3.152e-05, "MEAN_MOTION_DDOT": 0}, "tle": {"line1": "1 34985U 97051NR  25336.26839149  .00003152  00000+0  95476-3 0  9996", "line2": "2 34985  86.3697  61.3452 0019854 256.3727 159.0291 14.41932039870244"}}, "geometry": {"type": "Point", "coordinates": [-115.58742581487529, -41.318421237066595]}}, {"type": "Feature", "properties": {"norad_id": 35051, "name": "IRIDIUM 33 DEB", "group": "iridium-33-debris", "lat": -49.898015000803596, "lon": 8.91421770081672, "alt_km": 747.9997773110581, "timestamp": "2025-12-02T13:52:17.646377+00:00", "meta": {"OBJECT_NAME": "IRIDIUM 33 DEB", "OBJECT_ID": "1997-051NX", "EPOCH": "2025-12-01T09:53:54.581856", "MEAN_MOTION": 14.47515304, "ECCENTRICITY": 0.00104451, "INCLINATION": 86.3252, "RA_OF_ASC_NODE": 13.7986, "ARG_OF_PERICENTER": 121.6547, "MEAN_ANOMALY": 238.5677, "EPHEMERIS_TYPE": 0, "CLASSIFICATION_TYPE": "U", "NORAD_CAT_ID": 35051, "ELEMENT_SET_NO": 999, "REV_AT_EPOCH": 86832, "BSTAR": 0.00073041402, "MEAN_MOTION_DOT": 2.705e-05, "MEAN_MOTION_DDOT": 0}, "tle": {"line1": "1 35051U 97051NX  25335.41243729  .00002705  00000+0  73041-3 0  9997", "line2": "2 35051  86.3252  13.7986 0010445 121.6547 238.5677 14.47515304868325"}}, "geometry": {"type": "Point", "coordinates": [8.91421770081672, -49.898015000803596]}}, {"type": "Feature", "properties": {"norad_id": 35052, "name": "IRIDIUM 33 DEB", "group": "iridium-33-debris", "lat": 70.38465380589753, "lon": 35.2019393045779, "alt_km": 749.6831430965603, "timestamp": "2025-12-02T13:52:17.646387+00:00", "meta": {"OBJECT_NAME": "IRIDIUM 33 DEB", "OBJECT_ID": "1997-051NY", "EPOCH": "2025-12-01T20:50:57.172128", "MEAN_MOTION": 14.38471357, "ECCENTRICITY": 0.00135109, "INCLINATION": 86.332, "RA_OF_ASC_NODE": 25.1363, "ARG_OF_PERICENTER": 115.3752, "MEAN_ANOMALY": 244.8847, "EPHEMERIS_TYPE": 0, "CLASSIFICATION_TYPE": "U", "NORAD_CAT_ID": 35052, "ELEMENT_SET_NO": 999, "REV_AT_EPOCH": 87119, "BSTAR": 0.00022805798, "MEAN_MOTION_DOT": 7.16e-06, "MEAN_MOTION_DDOT": 0}, "tle": {"line1": "1 35052U 97051NY  25335.86871727  .00000716  00000+0  22806-3 0  9995", "line2": "2 35052  86.3320  25.1363 0013510 115.3752 244.8847 14.38471357871199"}}, "geometry": {"type": "Point", "coordinates": [35.2019393045779, 70.38465380589753]}}, {"type": "Feature", "properties": {"norad_id": 35080, "name": "IRIDIUM 33 DEB", "group": "iridium-33-debris", "lat": -14.506725024369771, "lon": 56.24053514378215, "alt_km": 651.5593760208403, "timestamp": "2025-12-02T13:52:17.646397+00:00", "meta": {"OBJECT_NAME": "IRIDIUM 33 DEB", "OBJECT_ID": "1997-051PF", "EPOCH": "2025-12-01T23:22:16.261248", "MEAN_MOTION": 14.83809313, "ECCENTRICITY": 0.00642465, "INCLINATION": 86.2057, "RA_OF_ASC_NODE": 57.5123, "ARG_OF_PERICENTER": 215.9752, "MEAN_ANOMALY": 143.7139, "EPHEMERIS_TYPE": 0, "CLASSIFICATION_TYPE": "U", "NORAD_CAT_ID": 35080, "ELEMENT_SET_NO": 999, "REV_AT_EPOCH": 69528, "BSTAR": 0.0089496131, "MEAN_MOTION_DOT": 0.00077648, "MEAN_MOTION_DDOT": 0}, "tle": {"line1": "1 35080U 97051PF  25335.97379932  .00077648  00000+0  89496-2 0  9994", "line2": "2 35080  86.2057  57.5123 0064246 215.9752 143.7139 14.83809313695280"}}, "geometry": {"type": "Point", "coordinates": [56.24053514378215, -14.506725024369771]}}, {"type": "Feature", "properties": {"norad_id": 35297, "name": "IRIDIUM 33 DEB", "group": "iridium-33-debris", "lat": 83.69107077925007, "lon": -147.77095483953886, "alt_km": 731.6818368183676, "timestamp": "2025-12-02T13:52:17.646407+00:00", "meta": {"OBJECT_NAME": "IRIDIUM 33 DEB", "OBJECT_ID": "1997-051PM", "EPOCH": "2025-11-28T13:02:32.385696", "MEAN_MOTION": 14.4505178, "ECCENTRICITY": 0.00162447, "INCLINATION": 86.3859, "RA_OF_ASC_NODE": 68.817, "ARG_OF_PERICENTER": 185.2069, "MEAN_ANOMALY": 174.8967, "EPHEMERIS_TYPE": 0, "CLASSIFICATION_TYPE": "U", "NORAD_CAT_ID": 35297, "ELEMENT_SET_NO": 999, "REV_AT_EPOCH": 70221, "BSTAR": 0.00072341306, "MEAN_MOTION_DOT": 2.549e-05, "MEAN_MOTION_DDOT": 0}, "tle": {"line1": "1 35297U 97051PM  25332.54343039  .00002549  00000+0  72341-3 0  9993", "line2": "2 35297  86.3859  68.8170 0016244 185.2069 174.8967 14.45051780702214"}}, "geometry": {"type": "Point", "coordinates": [-147.77095483953886, 83.69107077925007]}}, {"type": "Feature", "properties": {"norad_id": 35299, "name": "IRIDIUM 33 DEB", "group": "iridium-33-debris", "lat": -5.834675191658111, "lon": -142.0108535479823, "alt_km": 733.2865993461292, "timestamp": "2025-12-02T13:52:17.646418+00:00", "meta": {"OBJECT_NAME": "IRIDIUM 33 DEB", "OBJECT_ID": "1997-051PP", "EPOCH": "2025-12-01T22:35:01.204224", "MEAN_MOTION": 14.40770898, "ECCENTRICITY": 0.00585899, "INCLINATION": 86.2895, "RA_OF_ASC_NODE": 37.8863, "ARG_OF_PERICENTER": 136.7953, "MEAN_ANOMALY": 346.55, "EPHEMERIS_TYPE": 0, "CLASSIFICATION_TYPE": "U", "NORAD_CAT_ID": 35299, "ELEMENT_SET_NO": 999, "REV_AT_EPOCH": 86175, "BSTAR": 0.00094918557, "MEAN_MOTION_DOT": 3.118e-05, "MEAN_MOTION_DDOT": 0}, "tle": {"line1": "1 35299U 97051PP  25335.94098616  .00003118  00000+0  94919-3 0  9998", "line2": "2 35299  86.2895  37.8863 0058589 136.7953 346.5500 14.40770898861750"}}, "geometry": {"type": "Point", "coordinates": [-142.0108535479823, -5.834675191658111]}}]}